[
    {
        "Altitude(m)": 571150.0024840963,
        "Argument of Periapsis(deg)": 0.006622991110713501,
        "Eccentricity": 0.0,
        "Inclination(deg)": 53.0,
        "Latitude(deg)": -51.35877257548319,
        "Longitude(deg)": 148.85013266279978,
        "Mean Anomaly(deg)": 257.36429286757755,
        "RAAN(deg)": -0.009856631471983178,
        "Satellite Name": "Starlink Shell 1 15",
        "Satellite Number": 15,
        "Semi-Major Axis(m)": 6931778.249405717,
        "Time(s)": 190
    },
    {
        "Altitude(m)": 571216.5479346794,
        "Argument of Periapsis(deg)": 0.0069715695902247375,
        "Eccentricity": 0.0,
        "Inclination(deg)": 53.0,
        "Latitude(deg)": -51.52864614942193,
        "Longitude(deg)": 149.77084987260238,
        "Mean Anomaly(deg)": 257.9911240711343,
        "RAAN(deg)": -0.010375401549455977,
        "Satellite Name": "Starlink Shell 1 15",
        "Satellite Number": 15,
        "Semi-Major Axis(m)": 6931778.249405717,
        "Time(s)": 200
    },
    {
        "Altitude(m)": 571279.8632192748,
        "Argument of Periapsis(deg)": 0.007320148069735974,
        "Eccentricity": 0.0,
        "Inclination(deg)": 53.0,
        "Latitude(deg)": -51.6905714581038,
        "Longitude(deg)": 150.69857205954958,
        "Mean Anomaly(deg)": 258.617955274691,
        "RAAN(deg)": -0.010894171626928776,
        "Satellite Name": "Starlink Shell 1 15",
        "Satellite Number": 15,
        "Semi-Major Axis(m)": 6931778.249405717,
        "Time(s)": 210
    },
    {
        "Altitude(m)": 571339.9230906795,
        "Argument of Periapsis(deg)": 0.007668726549247212,
        "Eccentricity": 0.0,
        "Inclination(deg)": 53.0,
        "Latitude(deg)": -51.844446349715625,
        "Longitude(deg)": 151.63304811629962,
        "Mean Anomaly(deg)": 259.2447864782477,
        "RAAN(deg)": -0.011412941704401575,
        "Satellite Name": "Starlink Shell 1 15",
        "Satellite Number": 15,
        "Semi-Major Axis(m)": 6931778.249405717,
        "Time(s)": 220
    },
    {
        "Altitude(m)": 571396.7035936324,
        "Argument of Periapsis(deg)": 0.00801730502875845,
        "Eccentricity": 0.0,
        "Inclination(deg)": 53.0,
        "Latitude(deg)": -51.99017215144002,
        "Longitude(deg)": 152.5740109838035,
        "Mean Anomaly(deg)": 259.8716176818045,
        "RAAN(deg)": -0.011931711781874374,
        "Satellite Name": "Starlink Shell 1 15",
        "Satellite Number": 15,
        "Semi-Major Axis(m)": 6931778.249405717,
        "Time(s)": 230
    },
    {
        "Altitude(m)": 571450.1820751741,
        "Argument of Periapsis(deg)": 0.008365883508269684,
        "Eccentricity": 0.0,
        "Inclination(deg)": 53.0,
        "Latitude(deg)": -52.12765394956771,
        "Longitude(deg)": 153.52117839565724,
        "Mean Anomaly(deg)": 260.49844888536114,
        "RAAN(deg)": -0.012450481859347171,
        "Satellite Name": "Starlink Shell 1 15",
        "Satellite Number": 15,
        "Semi-Major Axis(m)": 6931778.249405717,
        "Time(s)": 240
    },
    {
        "Altitude(m)": 571500.3371944844,
        "Argument of Periapsis(deg)": 0.008714461987780921,
        "Eccentricity": 0.0,
        "Inclination(deg)": 53.0,
        "Latitude(deg)": -52.25680086666982,
        "Longitude(deg)": 154.47425219247748,
        "Mean Anomaly(deg)": 261.12528008891786,
        "RAAN(deg)": -0.012969251936819972,
        "Satellite Name": "Starlink Shell 1 15",
        "Satellite Number": 15,
        "Semi-Major Axis(m)": 6931778.249405717,
        "Time(s)": 250
    },
    {
        "Altitude(m)": 571547.1489321279,
        "Argument of Periapsis(deg)": 0.009063040467292158,
        "Eccentricity": 0.0,
        "Inclination(deg)": 53.0,
        "Latitude(deg)": -52.37752633415495,
        "Longitude(deg)": 155.43291923375196,
        "Mean Anomaly(deg)": 261.7521112924746,
        "RAAN(deg)": -0.013488022014292769,
        "Satellite Name": "Starlink Shell 1 15",
        "Satellite Number": 15,
        "Semi-Major Axis(m)": 6931778.249405717,
        "Time(s)": 260
    },
    {
        "Altitude(m)": 571590.5985987021,
        "Argument of Periapsis(deg)": 0.009411618946803396,
        "Eccentricity": 0.0,
        "Inclination(deg)": 53.0,
        "Latitude(deg)": -52.489748358410374,
        "Longitude(deg)": 156.39685239464077,
        "Mean Anomaly(deg)": 262.3789424960313,
        "RAAN(deg)": -0.014006792091765568,
        "Satellite Name": "Starlink Shell 1 15",
        "Satellite Number": 15,
        "Semi-Major Axis(m)": 6931778.249405717,
        "Time(s)": 270
    },
    {
        "Altitude(m)": 571630.6688429826,
        "Argument of Periapsis(deg)": 0.009760197426314633,
        "Eccentricity": 0.0,
        "Inclination(deg)": 53.0,
        "Latitude(deg)": -52.5933897789209,
        "Longitude(deg)": 157.3657101362639,
        "Mean Anomaly(deg)": 263.005773699588,
        "RAAN(deg)": -0.014525562169238369,
        "Satellite Name": "Starlink Shell 1 15",
        "Satellite Number": 15,
        "Semi-Major Axis(m)": 6931778.249405717,
        "Time(s)": 280
    },
    {
        "Altitude(m)": 571667.3436593948,
        "Argument of Periapsis(deg)": 0.01010877590582587,
        "Eccentricity": 0.0,
        "Inclination(deg)": 53.0,
        "Latitude(deg)": -52.688378516372914,
        "Longitude(deg)": 158.33913767255802,
        "Mean Anomaly(deg)": 263.6326049031447,
        "RAAN(deg)": -0.015044332246711162,
        "Satellite Name": "Starlink Shell 1 15",
        "Satellite Number": 15,
        "Semi-Major Axis(m)": 6931778.249405717,
        "Time(s)": 290
    },
    {
        "Altitude(m)": 571700.6083949641,
        "Argument of Periapsis(deg)": 0.010457354385337106,
        "Eccentricity": 0.0,
        "Inclination(deg)": 53.0,
        "Latitude(deg)": -52.774647809154004,
        "Longitude(deg)": 159.31676822059458,
        "Mean Anomaly(deg)": 264.25943610670146,
        "RAAN(deg)": -0.015563102324183963,
        "Satellite Name": "Starlink Shell 1 15",
        "Satellite Number": 15,
        "Semi-Major Axis(m)": 6931778.249405717,
        "Time(s)": 300
    },
    {
        "Altitude(m)": 571730.4497556468,
        "Argument of Periapsis(deg)": 0.010805932864848343,
        "Eccentricity": 0.0,
        "Inclination(deg)": 53.0,
        "Latitude(deg)": -52.85213643644037,
        "Longitude(deg)": 160.2982228182842,
        "Mean Anomaly(deg)": 264.8862673102582,
        "RAAN(deg)": -0.016081872401656764,
        "Satellite Name": "Starlink Shell 1 15",
        "Satellite Number": 15,
        "Semi-Major Axis(m)": 6931778.249405717,
        "Time(s)": 310
    },
    {
        "Altitude(m)": 571756.8558120976,
        "Argument of Periapsis(deg)": 0.01115451134435958,
        "Eccentricity": 0.0,
        "Inclination(deg)": 53.0,
        "Latitude(deg)": -52.92078892621111,
        "Longitude(deg)": 161.28311173180268,
        "Mean Anomaly(deg)": 265.51309851381484,
        "RAAN(deg)": -0.01660064247912956,
        "Satellite Name": "Starlink Shell 1 15",
        "Satellite Number": 15,
        "Semi-Major Axis(m)": 6931778.249405717,
        "Time(s)": 320
    },
    {
        "Altitude(m)": 571779.8160048253,
        "Argument of Periapsis(deg)": 0.011503089823870818,
        "Eccentricity": 0.0,
        "Inclination(deg)": 53.0,
        "Latitude(deg)": -52.980555746583384,
        "Longitude(deg)": 162.27103593544388,
        "Mean Anomaly(deg)": 266.1399297173716,
        "RAAN(deg)": -0.01711941255660236,
        "Satellite Name": "Starlink Shell 1 15",
        "Satellite Number": 15,
        "Semi-Major Axis(m)": 6931778.249405717,
        "Time(s)": 330
    },
    {
        "Altitude(m)": 571799.3211487579,
        "Argument of Periapsis(deg)": 0.011851668303382053,
        "Eccentricity": 0.0,
        "Inclination(deg)": 53.0,
        "Latitude(deg)": -53.03139347895795,
        "Longitude(deg)": 163.261587145724,
        "Mean Anomaly(deg)": 266.7667609209283,
        "RAAN(deg)": -0.01763818263407516,
        "Satellite Name": "Starlink Shell 1 15",
        "Satellite Number": 15,
        "Semi-Major Axis(m)": 6931778.249405717,
        "Time(s)": 340
    },
    {
        "Altitude(m)": 571815.3634372357,
        "Argument of Periapsis(deg)": 0.012200246782893292,
        "Eccentricity": 0.0,
        "Inclination(deg)": 53.0,
        "Latitude(deg)": -53.07326497158937,
        "Longitude(deg)": 164.25434942934294,
        "Mean Anomaly(deg)": 267.393592124485,
        "RAAN(deg)": -0.018156952711547956,
        "Satellite Name": "Starlink Shell 1 15",
        "Satellite Number": 15,
        "Semi-Major Axis(m)": 6931778.249405717,
        "Time(s)": 350
    },
    {
        "Altitude(m)": 571827.9364453685,
        "Argument of Periapsis(deg)": 0.012548825262404526,
        "Eccentricity": 0.0,
        "Inclination(deg)": 53.0,
        "Latitude(deg)": -53.1061394723235,
        "Longitude(deg)": 165.24890086521035,
        "Mean Anomaly(deg)": 268.0204233280417,
        "RAAN(deg)": -0.01867572278902076,
        "Satellite Name": "Starlink Shell 1 15",
        "Satellite Number": 15,
        "Semi-Major Axis(m)": 6931778.249405717,
        "Time(s)": 360
    },
    {
        "Altitude(m)": 571837.0351328254,
        "Argument of Periapsis(deg)": 0.012897403741915765,
        "Eccentricity": 0.0,
        "Inclination(deg)": 53.0,
        "Latitude(deg)": -53.12999273940039,
        "Longitude(deg)": 166.24481374004273,
        "Mean Anomaly(deg)": 268.64725453159843,
        "RAAN(deg)": -0.019194492866493558,
        "Satellite Name": "Starlink Shell 1 15",
        "Satellite Number": 15,
        "Semi-Major Axis(m)": 6931778.249405717,
        "Time(s)": 370
    }
]